{
  "type": "FeatureCollection",
  "features": [
    {
      "type": "Feature",
      "properties": {
        "norad_id": 61182,
        "name": "GSAT0232 (GALILEO 32)",
        "group": "gnss",
        "lat": 42.00122105018184,
        "lon": -94.71695450160067,
        "alt_km": 23223.526808398186,
        "timestamp": "2025-12-05T04:52:15.539809+00:00",
        "meta_object_name": "GSAT0232 (GALILEO 32)",
        "meta_object_id": "2024-167A",
        "meta_epoch": "2025-11-29T15:16:36.414048",
        "meta_mean_motion": 1.70473184,
        "meta_eccentricity": 0.00022439,
        "meta_inclination": 55.2459,
        "meta_ra_of_asc_node": 226.7912,
        "meta_arg_of_pericenter": 216.1557,
        "meta_mean_anomaly": 22.2275,
        "meta_ephemeris_type": 0,
        "meta_classification_type": "U",
        "meta_norad_cat_id": 61182,
        "meta_element_set_no": 999,
        "meta_rev_at_epoch": 747,
        "meta_bstar": 0,
        "meta_mean_motion_dot": 2.7e-07,
        "meta_mean_motion_ddot": 0,
        "tle_line1": "1 61182U 24167A   25333.63653257  .00000027  00000+0  00000+0 0  9998",
        "tle_line2": "2 61182  55.2459 226.7912 0002243 216.1557  22.2275  1.70473184  7470"
      },
      "geometry": {
        "type": "Point",
        "coordinates": [
          -94.71695450160067,
          42.00122105018184
        ]
      }
    },
    {
      "type": "Feature",
      "properties": {
        "norad_id": 61183,
        "name": "GSAT0226 (GALILEO 31)",
        "group": "gnss",
        "lat": 10.469100730720521,
        "lon": 39.28757615540679,
        "alt_km": 23219.37573034072,
        "timestamp": "2025-12-05T04:52:15.539825+00:00",
        "meta_object_name": "GSAT0226 (GALILEO 31)",
        "meta_object_id": "2024-167B",
        "meta_epoch": "2025-11-26T08:32:06.516672",
        "meta_mean_motion": 1.70473481,
        "meta_eccentricity": 6.079e-05,
        "meta_inclination": 55.246,
        "meta_ra_of_asc_node": 226.8867,
        "meta_arg_of_pericenter": 154.246,
        "meta_mean_anomaly": 343.2327,
        "meta_ephemeris_type": 0,
        "meta_classification_type": "U",
        "meta_norad_cat_id": 61183,
        "meta_element_set_no": 999,
        "meta_rev_at_epoch": 739,
        "meta_bstar": 0,
        "meta_mean_motion_dot": 3e-07,
        "meta_mean_motion_ddot": 0,
        "tle_line1": "1 61183U 24167B   25330.35563098  .00000030  00000+0  00000+0 0  9992",
        "tle_line2": "2 61183  55.2460 226.8867 0000607 154.2460 343.2327  1.70473481  7395"
      },
      "geometry": {
        "type": "Point",
        "coordinates": [
          39.28757615540679,
          10.469100730720521
        ]
      }
    },
    {
      "type": "Feature",
      "properties": {
        "norad_id": 61186,
        "name": "BEIDOU-3 M25 (C47)",
        "group": "gnss",
        "lat": 53.84428050792935,
        "lon": 25.11933733206619,
        "alt_km": 21534.90381855982,
        "timestamp": "2025-12-05T04:52:15.539842+00:00",
        "meta_object_name": "BEIDOU-3 M25 (C47)",
        "meta_object_id": "2024-168B",
        "meta_epoch": "2025-12-04T06:41:34.098432",
        "meta_mean_motion": 1.86229712,
        "meta_eccentricity": 0.0005502,
        "meta_inclination": 54.6499,
        "meta_ra_of_asc_node": 309.0133,
        "meta_arg_of_pericenter": 294.1783,
        "meta_mean_anomaly": 248.0837,
        "meta_ephemeris_type": 0,
        "meta_classification_type": "U",
        "meta_norad_cat_id": 61186,
        "meta_element_set_no": 999,
        "meta_rev_at_epoch": 815,
        "meta_bstar": 0,
        "meta_mean_motion_dot": -6.9e-07,
        "meta_mean_motion_ddot": 0,
        "tle_line1": "1 61186U 24168B   25338.27886688 -.00000069  00000+0  00000+0 0  9991",
        "tle_line2": "2 61186  54.6499 309.0133 0005502 294.1783 248.0837  1.86229712  8150"
      },
      "geometry": {
        "type": "Point",
        "coordinates": [
          25.11933733206619,
          53.84428050792935
        ]
      }
    },
    {
      "type": "Feature",
      "properties": {
        "norad_id": 61187,
        "name": "BEIDOU-3 M27 (C49)",
        "group": "gnss",
        "lat": -29.236922394858546,
        "lon": 152.34513014654394,
        "alt_km": 21534.342948603116,
        "timestamp": "2025-12-05T04:52:15.539860+00:00",
        "meta_object_name": "BEIDOU-3 M27 (C49)",
        "meta_object_id": "2024-168C",
        "meta_epoch": "2025-12-04T01:54:08.310240",
        "meta_mean_motion": 1.86229854,
        "meta_eccentricity": 0.00022821,
        "meta_inclination": 54.6454,
        "meta_ra_of_asc_node": 309.0039,
        "meta_arg_of_pericenter": 329.4527,
        "meta_mean_anomaly": 213.9234,
        "meta_ephemeris_type": 0,
        "meta_classification_type": "U",
        "meta_norad_cat_id": 61187,
        "meta_element_set_no": 999,
        "meta_rev_at_epoch": 562,
        "meta_bstar": 0,
        "meta_mean_motion_dot": -6.8e-07,
        "meta_mean_motion_ddot": 0,
        "tle_line1": "1 61187U 24168C   25338.07926285 -.00000068  00000+0  00000+0 0  9997",
        "tle_line2": "2 61187  54.6454 309.0039 0002282 329.4527 213.9234  1.86229854  5625"
      },
      "geometry": {
        "type": "Point",
        "coordinates": [
          152.34513014654394,
          -29.236922394858546
        ]
      }
    },
    {
      "type": "Feature",
      "properties": {
        "norad_id": 62339,
        "name": "GPS BIII-7  (PRN 01)",
        "group": "gnss",
        "lat": -30.604976587155946,
        "lon": -173.396608351332,
        "alt_km": 20203.569436102727,
        "timestamp": "2025-12-05T04:52:15.539876+00:00",
        "meta_object_name": "GPS BIII-7  (PRN 01)",
        "meta_object_id": "2024-242A",
        "meta_epoch": "2025-12-04T03:38:20.685120",
        "meta_mean_motion": 2.00567235,
        "meta_eccentricity": 0.0011725,
        "meta_inclination": 54.9261,
        "meta_ra_of_asc_node": 342.0885,
        "meta_arg_of_pericenter": 343.4986,
        "meta_mean_anomaly": 195.9397,
        "meta_ephemeris_type": 0,
        "meta_classification_type": "U",
        "meta_norad_cat_id": 62339,
        "meta_element_set_no": 999,
        "meta_rev_at_epoch": 734,
        "meta_bstar": 0,
        "meta_mean_motion_dot": -7.2e-07,
        "meta_mean_motion_ddot": 0,
        "tle_line1": "1 62339U 24242A   25338.15162830 -.00000072  00000+0  00000+0 0  9992",
        "tle_line2": "2 62339  54.9261 342.0885 0011725 343.4986 195.9397  2.00567235  7342"
      },
      "geometry": {
        "type": "Point",
        "coordinates": [
          -173.396608351332,
          -30.604976587155946
        ]
      }
    },
    {
      "type": "Feature",
      "properties": {
        "norad_id": 62850,
        "name": "NVS-02 (IRNSS-1K)",
        "group": "gnss",
        "lat": 16.78267308076944,
        "lon": 22.154906764312624,
        "alt_km": 790.0389513476712,
        "timestamp": "2025-12-05T04:52:15.539915+00:00",
        "meta_object_name": "NVS-02 (IRNSS-1K)",
        "meta_object_id": "2025-020A",
        "meta_epoch": "2025-12-04T06:38:07.363104",
        "meta_mean_motion": 2.1758608,
        "meta_eccentricity": 0.734787,
        "meta_inclination": 21.0056,
        "meta_ra_of_asc_node": 330.7198,
        "meta_arg_of_pericenter": 20.7453,
        "meta_mean_anomaly": 357.9063,
        "meta_ephemeris_type": 0,
        "meta_classification_type": "U",
        "meta_norad_cat_id": 62850,
        "meta_element_set_no": 999,
        "meta_rev_at_epoch": 673,
        "meta_bstar": 0.00056843,
        "meta_mean_motion_dot": 9.64e-06,
        "meta_mean_motion_ddot": 0,
        "tle_line1": "1 62850U 25020A   25338.27647411  .00000964  00000+0  56843-3 0  9990",
        "tle_line2": "2 62850  21.0056 330.7198 7347870  20.7453 357.9063  2.17586080  6731"
      },
      "geometry": {
        "type": "Point",
        "coordinates": [
          22.154906764312624,
          16.78267308076944
        ]
      }
    },
    {
      "type": "Feature",
      "properties": {
        "norad_id": 63130,
        "name": "COSMOS 2584 (704K)",
        "group": "gnss",
        "lat": -62.15240952900858,
        "lon": -38.6013088346729,
        "alt_km": 19122.725681989097,
        "timestamp": "2025-12-05T04:52:15.539932+00:00",
        "meta_object_name": "COSMOS 2584 (704K)",
        "meta_object_id": "2025-042A",
        "meta_epoch": "2025-11-26T10:06:10.904256",
        "meta_mean_motion": 2.13103062,
        "meta_eccentricity": 0.00075218,
        "meta_inclination": 64.9668,
        "meta_ra_of_asc_node": 79.7019,
        "meta_arg_of_pericenter": 212.3772,
        "meta_mean_anomaly": 147.585,
        "meta_ephemeris_type": 0,
        "meta_classification_type": "U",
        "meta_norad_cat_id": 63130,
        "meta_element_set_no": 999,
        "meta_rev_at_epoch": 572,
        "meta_bstar": 0,
        "meta_mean_motion_dot": 1.8e-07,
        "meta_mean_motion_ddot": 0,
        "tle_line1": "1 63130U 25042A   25330.42095954  .00000018  00000+0  00000+0 0  9994",
        "tle_line2": "2 63130  64.9668  79.7019 0007521 212.3772 147.5850  2.13103062  5728"
      },
      "geometry": {
        "type": "Point",
        "coordinates": [
          -38.6013088346729,
          -62.15240952900858
        ]
      }
    }
  ]
}